CCSDS_OMM_VERS = 2.0
CREATION_DATE  = 
ORIGINATOR     = 

OBJECT_NAME    = SL-14 R/B
OBJECT_ID      = 1986-046B
CENTER_NAME    = EARTH
REF_FRAME      = TEME
TIME_SYSTEM    = UTC
MEAN_ELEMENT_THEORY = SGP/SGP4

EPOCH          = 2026-02-17T14:24:59.927904
MEAN_MOTION    = 14.85570064
ECCENTRICITY   = .0021629
INCLINATION    = 82.4799
RA_OF_ASC_NODE = 99.1679
ARG_OF_PERICENTER = 296.0029
MEAN_ANOMALY   = 63.8959

EPHEMERIS_TYPE = 0
CLASSIFICATION_TYPE = U
NORAD_CAT_ID   = 16792
ELEMENT_SET_NO = 999
REV_AT_EPOCH   = 12342
BSTAR          = .45813E-4
MEAN_MOTION_DOT = .421E-5
MEAN_MOTION_DDOT = 0

CCSDS_OMM_VERS = 2.0
CREATION_DATE  = 
ORIGINATOR     = 

OBJECT_NAME    = SL-14 R/B
OBJECT_ID      = 1986-055B
CENTER_NAME    = EARTH
REF_FRAME      = TEME
TIME_SYSTEM    = UTC
MEAN_ELEMENT_THEORY = SGP/SGP4

EPOCH          = 2026-02-17T17:48:14.988096
MEAN_MOTION    = 14.85621876
ECCENTRICITY   = .00198655
INCLINATION    = 82.5232
RA_OF_ASC_NODE = 145.4188
ARG_OF_PERICENTER = 41.9489
MEAN_ANOMALY   = 73.6666

EPHEMERIS_TYPE = 0
CLASSIFICATION_TYPE = U
NORAD_CAT_ID   = 16882
ELEMENT_SET_NO = 999
REV_AT_EPOCH   = 11640
BSTAR          = .53594253E-4
MEAN_MOTION_DOT = .49E-5
MEAN_MOTION_DDOT = 0

CCSDS_OMM_VERS = 2.0
CREATION_DATE  = 
ORIGINATOR     = 

OBJECT_NAME    = AJISAI (EGS)
OBJECT_ID      = 1986-061A
CENTER_NAME    = EARTH
REF_FRAME      = TEME
TIME_SYSTEM    = UTC
MEAN_ELEMENT_THEORY = SGP/SGP4

EPOCH          = 2026-02-17T23:16:01.061472
MEAN_MOTION    = 12.44515329
ECCENTRICITY   = .00112333
INCLINATION    = 50.0083
RA_OF_ASC_NODE = 153.9876
ARG_OF_PERICENTER = 236.1894
MEAN_ANOMALY   = 235.6024

EPHEMERIS_TYPE = 0
CLASSIFICATION_TYPE = U
NORAD_CAT_ID   = 16908
ELEMENT_SET_NO = 999
REV_AT_EPOCH   = 46554
BSTAR          = .12106516E-4
MEAN_MOTION_DOT = -.96E-6
MEAN_MOTION_DDOT = 0

CCSDS_OMM_VERS = 2.0
CREATION_DATE  = 
ORIGINATOR     = 

OBJECT_NAME    = COSMOS 1812
OBJECT_ID      = 1987-003A
CENTER_NAME    = EARTH
REF_FRAME      = TEME
TIME_SYSTEM    = UTC
MEAN_ELEMENT_THEORY = SGP/SGP4

EPOCH          = 2026-02-17T22:39:25.477632
MEAN_MOTION    = 16.01585656
ECCENTRICITY   = .00031054
INCLINATION    = 82.4747
RA_OF_ASC_NODE = 218.1437
ARG_OF_PERICENTER = 300.5291
MEAN_ANOMALY   = 59.5680

EPHEMERIS_TYPE = 0
CLASSIFICATION_TYPE = U
NORAD_CAT_ID   = 17295
ELEMENT_SET_NO = 999
REV_AT_EPOCH   = 14130
BSTAR          = .67952634E-3
MEAN_MOTION_DOT = .377154E-2
MEAN_MOTION_DDOT = .60011805E-4

CCSDS_OMM_VERS = 2.0
CREATION_DATE  = 
ORIGINATOR     = 

OBJECT_NAME    = SL-14 R/B
OBJECT_ID      = 1987-024B
CENTER_NAME    = EARTH
REF_FRAME      = TEME
TIME_SYSTEM    = UTC
MEAN_ELEMENT_THEORY = SGP/SGP4

EPOCH          = 2026-02-17T15:23:39.412896
MEAN_MOTION    = 14.86112378
ECCENTRICITY   = .00173711
INCLINATION    = 82.5275
RA_OF_ASC_NODE = 111.6086
ARG_OF_PERICENTER = 331.5630
MEAN_ANOMALY   = 28.4637

EPHEMERIS_TYPE = 0
CLASSIFICATION_TYPE = U
NORAD_CAT_ID   = 17567
ELEMENT_SET_NO = 999
REV_AT_EPOCH   = 8515
BSTAR          = .46127542E-4
MEAN_MOTION_DOT = .429E-5
MEAN_MOTION_DDOT = 0

CCSDS_OMM_VERS = 2.0
CREATION_DATE  = 
ORIGINATOR     = 

OBJECT_NAME    = COSMOS 1833
OBJECT_ID      = 1987-027A
CENTER_NAME    = EARTH
REF_FRAME      = TEME
TIME_SYSTEM    = UTC
MEAN_ELEMENT_THEORY = SGP/SGP4

EPOCH          = 2026-02-17T07:57:05.253120
MEAN_MOTION    = 14.13057385
ECCENTRICITY   = .00248617
INCLINATION    = 70.9227
RA_OF_ASC_NODE = 8.8029
ARG_OF_PERICENTER = 242.2527
MEAN_ANOMALY   = 117.6073

EPHEMERIS_TYPE = 0
CLASSIFICATION_TYPE = U
NORAD_CAT_ID   = 17589
ELEMENT_SET_NO = 999
REV_AT_EPOCH   = 744
BSTAR          = .1518808E-5
MEAN_MOTION_DOT = -.45E-6
MEAN_MOTION_DDOT = 0

CCSDS_OMM_VERS = 2.0
CREATION_DATE  = 
ORIGINATOR     = 

OBJECT_NAME    = SL-16 R/B
OBJECT_ID      = 1987-027B
CENTER_NAME    = EARTH
REF_FRAME      = TEME
TIME_SYSTEM    = UTC
MEAN_ELEMENT_THEORY = SGP/SGP4

EPOCH          = 2026-02-17T18:53:56.872320
MEAN_MOTION    = 14.17163783
ECCENTRICITY   = .00045493
INCLINATION    = 71.0041
RA_OF_ASC_NODE = 318.4341
ARG_OF_PERICENTER = 178.1954
MEAN_ANOMALY   = 181.9187

EPHEMERIS_TYPE = 0
CLASSIFICATION_TYPE = U
NORAD_CAT_ID   = 17590
ELEMENT_SET_NO = 999
REV_AT_EPOCH   = 1252
BSTAR          = .12987501E-3
MEAN_MOTION_DOT = .214E-5
MEAN_MOTION_DDOT = 0

CCSDS_OMM_VERS = 2.0
CREATION_DATE  = 
ORIGINATOR     = 

OBJECT_NAME    = SL-14 R/B
OBJECT_ID      = 1987-038B
CENTER_NAME    = EARTH
REF_FRAME      = TEME
TIME_SYSTEM    = UTC
MEAN_ELEMENT_THEORY = SGP/SGP4

EPOCH          = 2026-02-17T18:15:33.100992
MEAN_MOTION    = 14.85350025
ECCENTRICITY   = .00179915
INCLINATION    = 82.5036
RA_OF_ASC_NODE = 315.5785
ARG_OF_PERICENTER = 227.6411
MEAN_ANOMALY   = 132.3282

EPHEMERIS_TYPE = 0
CLASSIFICATION_TYPE = U
NORAD_CAT_ID   = 17912
ELEMENT_SET_NO = 999
REV_AT_EPOCH   = 7627
BSTAR          = .52584011E-4
MEAN_MOTION_DOT = .477E-5
MEAN_MOTION_DDOT = 0

CCSDS_OMM_VERS = 2.0
CREATION_DATE  = 
ORIGINATOR     = 

OBJECT_NAME    = COSMOS 1844
OBJECT_ID      = 1987-041A
CENTER_NAME    = EARTH
REF_FRAME      = TEME
TIME_SYSTEM    = UTC
MEAN_ELEMENT_THEORY = SGP/SGP4

EPOCH          = 2026-02-17T12:42:28.620288
MEAN_MOTION    = 14.14548891
ECCENTRICITY   = .0029049
INCLINATION    = 70.8980
RA_OF_ASC_NODE = 76.7001
ARG_OF_PERICENTER = 50.0513
MEAN_ANOMALY   = 310.3154

EPHEMERIS_TYPE = 0
CLASSIFICATION_TYPE = U
NORAD_CAT_ID   = 17973
ELEMENT_SET_NO = 999
REV_AT_EPOCH   = 73
BSTAR          = .20293E-3
MEAN_MOTION_DOT = .343E-5
MEAN_MOTION_DDOT = 0

CCSDS_OMM_VERS = 2.0
CREATION_DATE  = 
ORIGINATOR     = 

OBJECT_NAME    = SL-14 R/B
OBJECT_ID      = 1987-055B
CENTER_NAME    = EARTH
REF_FRAME      = TEME
TIME_SYSTEM    = UTC
MEAN_ELEMENT_THEORY = SGP/SGP4

EPOCH          = 2026-02-17T08:05:26.419776
MEAN_MOTION    = 14.85603165
ECCENTRICITY   = .00223264
INCLINATION    = 82.5010
RA_OF_ASC_NODE = 8.2086
ARG_OF_PERICENTER = 81.3555
MEAN_ANOMALY   = 279.0190

EPHEMERIS_TYPE = 0
CLASSIFICATION_TYPE = U
NORAD_CAT_ID   = 18153
ELEMENT_SET_NO = 999
REV_AT_EPOCH   = 6691
BSTAR          = .64091803E-4
MEAN_MOTION_DOT = .581E-5
MEAN_MOTION_DDOT = 0

CCSDS_OMM_VERS = 2.0
CREATION_DATE  = 
ORIGINATOR     = 

OBJECT_NAME    = COSMOS 1867
OBJECT_ID      = 1987-060A
CENTER_NAME    = EARTH
REF_FRAME      = TEME
TIME_SYSTEM    = UTC
MEAN_ELEMENT_THEORY = SGP/SGP4

EPOCH          = 2026-02-17T06:01:48.541728
MEAN_MOTION    = 14.31499693
ECCENTRICITY   = .0014172
INCLINATION    = 65.0122
RA_OF_ASC_NODE = 3.9400
ARG_OF_PERICENTER = 277.4997
MEAN_ANOMALY   = 82.4477

EPHEMERIS_TYPE = 0
CLASSIFICATION_TYPE = U
NORAD_CAT_ID   = 18187
ELEMENT_SET_NO = 999
REV_AT_EPOCH   = 1701
BSTAR          = .23505E-4
MEAN_MOTION_DOT = -.38E-6
MEAN_MOTION_DDOT = 0

CCSDS_OMM_VERS = 2.0
CREATION_DATE  = 
ORIGINATOR     = 

OBJECT_NAME    = SL-14 R/B
OBJECT_ID      = 1988-001B
CENTER_NAME    = EARTH
REF_FRAME      = TEME
TIME_SYSTEM    = UTC
MEAN_ELEMENT_THEORY = SGP/SGP4

EPOCH          = 2026-02-17T12:47:36.891168
MEAN_MOTION    = 14.85501778
ECCENTRICITY   = .0016868
INCLINATION    = 82.5117
RA_OF_ASC_NODE = 214.3171
ARG_OF_PERICENTER = 308.1690
MEAN_ANOMALY   = 51.8006

EPHEMERIS_TYPE = 0
CLASSIFICATION_TYPE = U
NORAD_CAT_ID   = 18749
ELEMENT_SET_NO = 999
REV_AT_EPOCH   = 3903
BSTAR          = .5336E-4
MEAN_MOTION_DOT = .485E-5
MEAN_MOTION_DDOT = 0

